[{"OBJECT_NAME":"STARLINK-32429","OBJECT_ID":"2024-193X","EPOCH":"2026-03-09T09:16:18.758208","MEAN_MOTION":15.30187269,"ECCENTRICITY":0.00011459,"INCLINATION":53.1602,"RA_OF_ASC_NODE":92.1586,"ARG_OF_PERICENTER":101.2663,"MEAN_ANOMALY":258.8466,"EPHEMERIS_TYPE":0,"CLASSIFICATION_TYPE":"U","NORAD_CAT_ID":61682,"ELEMENT_SET_NO":999,"REV_AT_EPOCH":7648,"BSTAR":-1.3390741e-5,"MEAN_MOTION_DOT":-7.55e-6,"MEAN_MOTION_DDOT":0},{"OBJECT_NAME":"COSMOS 2251 DEB","OBJECT_ID":"1993-036BTX","EPOCH":"2026-02-28T17:34:44.973408","MEAN_MOTION":15.25753352,"ECCENTRICITY":0.00216382,"INCLINATION":73.9681,"RA_OF_ASC_NODE":229.3494,"ARG_OF_PERICENTER":13.6287,"MEAN_ANOMALY":346.5492,"EPHEMERIS_TYPE":0,"CLASSIFICATION_TYPE":"U","NORAD_CAT_ID":38487,"ELEMENT_SET_NO":999,"REV_AT_EPOCH":67986,"BSTAR":0.0024802785,"MEAN_MOTION_DOT":0.00064261,"MEAN_MOTION_DDOT":0}]
